COMMENT,ORIGINATOR,NORAD_CAT_ID,OBJECT_NAME,OBJECT_TYPE,CLASSIFICATION_TYPE,INTLDES,EPOCH,EPOCH_MICROSECONDS,MEAN_MOTION,ECCENTRICITY,INCLINATION,RA_OF_ASC_NODE,ARG_OF_PERICENTER,MEAN_ANOMALY,EPHEMERIS_TYPE,ELEMENT_SET_NO,REV_AT_EPOCH,BSTAR,MEAN_MOTION_DOT,MEAN_MOTION_DDOT,FILE,TLE_LINE0,TLE_LINE1,TLE_LINE2,OBJECT_ID,OBJECT_NUMBER,SEMIMAJOR_AXIS,PERIOD,APOGEE,PERIGEE,DECAYED
"GENERATED VIA SPACETRACK.ORG API","18 SPCS","48896","SPACEBEE-105","PAYLOAD","U","21059T","2023-01-16 07:57:56","21760","15.21367337","0.0008655","97.5752","150.8214","74.9232","285.2961","0","999","8622","0.0018138","0.00040813","0","3749606","0 SPACEBEE-105","1 48896U 21059T   23016.33189840  .00040813  00000-0  18138-2 0  9999","2 48896  97.5752 150.8214 0008655  74.9232 285.2961 15.21367337 86223","2021-059T","48896","6879.852","94.652","507.672","495.763","0"
"GENERATED VIA SPACETRACK.ORG API","18 SPCS","48896","SPACEBEE-105","PAYLOAD","U","21059T","2023-01-16 22:10:19","955712","15.21402772","0.0008621","97.5752","151.4172","72.8769","287.341","0","999","8631","0.0014222","0.00031981","0","3751409","0 SPACEBEE-105","1 48896U 21059T   23016.92384208  .00031981  00000-0  14222-2 0  9995","2 48896  97.5752 151.4172 0008621  72.8769 287.3410 15.21402772 86313","2021-059T","48896","6879.745","94.649","507.542","495.679","0"
"GENERATED VIA SPACETRACK.ORG API","18 SPCS","48896","SPACEBEE-105","PAYLOAD","U","21059T","2023-01-17 07:38:35","242080","15.21424181","0.000859","97.5755","151.8144","71.4224","288.7943","0","999","8637","0.0012685","0.00028521","0","3753023","0 SPACEBEE-105","1 48896U 21059T   23017.31846345  .00028521  00000-0  12685-2 0  9991","2 48896  97.5755 151.8144 0008590  71.4224 288.7943 15.21424181 86375","2021-059T","48896","6879.681","94.648","507.456","495.636","0"
"GENERATED VIA SPACETRACK.ORG API","18 SPCS","48896","SPACEBEE-105","PAYLOAD","U","21059T","2023-01-17 21:50:57","214752","15.21457287","0.0008641","97.5756","152.4102","69.7785","290.4379","0","999","8646","0.001155","0.00025979","0","3753431","0 SPACEBEE-105","1 48896U 21059T   23017.91038443  .00025979  00000-0  11550-2 0  9993","2 48896  97.5756 152.4102 0008641  69.7785 290.4379 15.21457287 86462","2021-059T","48896","6879.581","94.646","507.391","495.502","0"
"GENERATED VIA SPACETRACK.ORG API","18 SPCS","48896","SPACEBEE-105","PAYLOAD","U","21059T","2023-01-18 08:53:53","461824","15.21492576","0.0008691","97.5757","152.8735","68.3392","291.8768","0","999","8653","0.0015978","0.00036053","0","3753821","0 SPACEBEE-105","1 48896U 21059T   23018.37075766  .00036053  00000-0  15978-2 0  9996","2 48896  97.5757 152.8735 0008691  68.3392 291.8768 15.21492576 86538","2021-059T","48896","6879.475","94.644","507.319","495.361","0"
"GENERATED VIA SPACETRACK.ORG API","18 SPCS","48896","SPACEBEE-105","PAYLOAD","U","21059T","2023-01-18 08:53:53","461824","15.21492576","0.0008691","97.5757","152.8735","68.3392","291.8768","0","999","8653","0.0015978","0.00036053","0","3753951","0 SPACEBEE-105","1 48896U 21059T   23018.37075766  .00036053  00000-0  15978-2 0  9996","2 48896  97.5757 152.8735 0008691  68.3392 291.8768 15.21492576 86538","2021-059T","48896","6879.475","94.644","507.319","495.361","0"
"GENERATED VIA SPACETRACK.ORG API","18 SPCS","48896","SPACEBEE-105","PAYLOAD","U","21059T","2023-01-18 21:31:31","77408","15.21524245","0.0008666","97.5759","153.4034","66.0412","294.173","0","999","8661","0.0014434","0.00032577","0","3754254","0 SPACEBEE-105","1 48896U 21059T   23018.89688747  .00032577  00000-0  14434-2 0  9995","2 48896  97.5759 153.4034 0008666  66.0412 294.1730 15.21524245 86612","2021-059T","48896","6879.379","94.642","507.206","495.283","0"
"GENERATED VIA SPACETRACK.ORG API","18 SPCS","48896","SPACEBEE-105","PAYLOAD","U","21059T","2023-01-19 06:59:43","648224","15.2154499","0.0008688","97.5759","153.8007","64.8289","295.3846","0","999","8667","0.0012536","0.00028285","0","3754735","0 SPACEBEE-105","1 48896U 21059T   23019.29147741  .00028285  00000-0  12536-2 0  9996","2 48896  97.5759 153.8007 0008688  64.8289 295.3846 15.21544990 86674","2021-059T","48896","6879.317","94.641","507.159","495.205","0"
"GENERATED VIA SPACETRACK.ORG API","18 SPCS","48896","SPACEBEE-105","PAYLOAD","U","21059T","2023-01-19 08:34:25","690656","15.2155189","0.0008701","97.5759","153.8672","64.5303","295.6831","0","999","8668","0.0014126","0.00031904","0","3754973","0 SPACEBEE-105","1 48896U 21059T   23019.35724179  .00031904  00000-0  14126-2 0  9998","2 48896  97.5759 153.8672 0008701  64.5303 295.6831 15.21551890 86687","2021-059T","48896","6879.296","94.640","507.147","495.175","0"
"GENERATED VIA SPACETRACK.ORG API","18 SPCS","48896","SPACEBEE-105","PAYLOAD","U","21059T","2023-01-20 08:14:54","482496","15.21610092","0.0008647","97.5761","154.8601","61.125","299.0852","0","999","8683","0.0012829","0.00029005","0","3755783","0 SPACEBEE-105","1 48896U 21059T   23020.34368614  .00029005  00000-0  12829-2 0  9994","2 48896  97.5761 154.8601 0008647  61.1250 299.0852 15.21610092 86834","2021-059T","48896","6879.121","94.637","506.934","495.037","0"
"GENERATED VIA SPACETRACK.ORG API","18 SPCS","48896","SPACEBEE-105","PAYLOAD","U","21059T","2023-01-20 08:14:54","482496","15.21610092","0.0008647","97.5761","154.8601","61.125","299.0852","0","999","8683","0.0012829","0.00029005","0","3755973","0 SPACEBEE-105","1 48896U 21059T   23020.34368614  .00029005  00000-0  12829-2 0  9994","2 48896  97.5761 154.8601 0008647  61.1250 299.0852 15.21610092 86834","2021-059T","48896","6879.121","94.637","506.934","495.037","0"
"GENERATED VIA SPACETRACK.ORG API","18 SPCS","48896","SPACEBEE-105","PAYLOAD","U","21059T","2023-01-22 02:51:37","835424","15.21723299","0.0008596","97.5766","156.648","54.795","305.4089","0","999","8710","0.0015008","0.0003408","0","3757368","0 SPACEBEE-105","1 48896U 21059T   23022.11918791  .00034080  00000-0  15008-2 0  9999","2 48896  97.5766 156.6480 0008596  54.7950 305.4089 15.21723299 87101","2021-059T","48896","6878.779","94.630","506.557","494.731","0"
"GENERATED VIA SPACETRACK.ORG API","18 SPCS","48896","SPACEBEE-105","PAYLOAD","U","21059T","2023-01-23 07:16:00","325056","15.21798606","0.0008654","97.5769","157.8401","50.833","309.3673","0","999","8728","0.0013947","0.00031726","0","3758687","0 SPACEBEE-105","1 48896U 21059T   23023.30278154  .00031726  00000-0  13947-2 0  9997","2 48896  97.5769 157.8401 0008654  50.8330 309.3673 15.21798606 87289","2021-059T","48896","6878.552","94.625","506.370","494.465","0"
"GENERATED VIA SPACETRACK.ORG API","18 SPCS","48896","SPACEBEE-105","PAYLOAD","U","21059T","2023-01-24 08:30:56","200032","15.21862565","0.000863","97.5771","158.8995","47.4951","312.7012","0","999","8744","0.0013634","0.00031068","0","3759769","0 SPACEBEE-105","1 48896U 21059T   23024.35481713  .00031068  00000-0  13634-2 0  9992","2 48896  97.5771 158.8995 0008630  47.4951 312.7012 15.21862565 87445","2021-059T","48896","6878.360","94.621","506.161","494.289","0"
"GENERATED VIA SPACETRACK.ORG API","18 SPCS","48896","SPACEBEE-105","PAYLOAD","U","21059T","2023-01-25 08:11:07","852704","15.21911018","0.0008577","97.5768","159.8926","43.2648","316.926","0","999","8759","0.0010584","0.00024113","0","3760872","0 SPACEBEE-105","1 48896U 21059T   23025.34106311  .00024113  00000-0  10584-2 0  9994","2 48896  97.5768 159.8926 0008577  43.2648 316.9260 15.21911018 87598","2021-059T","48896","6878.214","94.618","505.978","494.179","0"
"GENERATED VIA SPACETRACK.ORG API","18 SPCS","48896","SPACEBEE-105","PAYLOAD","U","21059T","2023-01-25 14:29:50","494560","15.21924661","0.0008512","97.5766","160.1574","42.4973","317.692","0","999","8763","0.0011318","0.00025806","0","3761297","0 SPACEBEE-105","1 48896U 21059T   23025.60405665  .00025806  00000-0  11318-2 0  9993","2 48896  97.5766 160.1574 0008512  42.4973 317.6920 15.21924661 87635","2021-059T","48896","6878.173","94.617","505.892","494.183","0"
"GENERATED VIA SPACETRACK.ORG API","18 SPCS","48896","SPACEBEE-105","PAYLOAD","U","21059T","2023-01-26 14:09:58","528800","15.21979178","0.0008503","97.5764","161.1507","39.1838","321.0012","0","999","8778","0.0012545","0.00028668","0","3761951","0 SPACEBEE-105","1 48896U 21059T   23026.59026075  .00028668  00000-0  12545-2 0  9998","2 48896  97.5764 161.1507 0008503  39.1838 321.0012 15.21979178 87783","2021-059T","48896","6878.008","94.614","505.722","494.025","0"
"GENERATED VIA SPACETRACK.ORG API","18 SPCS","48896","SPACEBEE-105","PAYLOAD","U","21059T","2023-01-26 20:28:40","182240","15.21992573","0.0008522","97.5764","161.4158","38.2183","321.9656","0","999","8782","0.0011546","0.00026382","0","3762171","0 SPACEBEE-105","1 48896U 21059T   23026.85324285  .00026382  00000-0  11546-2 0  9992","2 48896  97.5764 161.4158 0008522  38.2183 321.9656 15.21992573 87824","2021-059T","48896","6877.968","94.613","505.694","493.972","0"
"GENERATED VIA SPACETRACK.ORG API","18 SPCS","48896","SPACEBEE-105","PAYLOAD","U","21059T","2023-01-27 07:31:22","586304","15.22013755","0.0008568","97.5763","161.8797","36.6132","323.5688","0","999","8789","0.0010059","0.00022979","0","3762956","0 SPACEBEE-105","1 48896U 21059T   23027.31345586  .00022979  00000-0  10059-2 0  9997","2 48896  97.5763 161.8797 0008568  36.6132 323.5688 15.22013755 87899","2021-059T","48896","6877.904","94.611","505.662","493.876","0"
"GENERATED VIA SPACETRACK.ORG API","18 SPCS","48896","SPACEBEE-105","PAYLOAD","U","21059T","2023-01-27 21:43:24","823488","15.22043075","0.000853","97.5763","162.4755","35.1747","325.005","0","999","8798","0.0010132","0.00023167","0","3763337","0 SPACEBEE-105","1 48896U 21059T   23027.90514842  .00023167  00000-0  10132-2 0  9997","2 48896  97.5763 162.4755 0008530  35.1747 325.0050 15.22043075 87983","2021-059T","48896","6877.816","94.610","505.548","493.814","0"
